start=new Date('2023-05-01T00:00:00.000Z').valueOf();
sats=[{"RCS_SIZE":"LARGE","MEAN_ANOMALY":"354.0916","INCLINATION":"53.2173","PERIOD":"95.437","OBJECT_NAME":"STARLINK-3296","ARG_OF_PERICENTER":"6.0124","SITE":"AFWTR","PERIAPSIS":"536.904","COUNTRY_CODE":"US","EPHEMERIS_TYPE":"0","ELEMENT_SET_NO":"999","EPOCH":"2023-04-30T15:13:02.795232","ECCENTRICITY":"0.00040560","SEMIMAJOR_AXIS":"6917.844","BSTAR":"0.00005073600000","OBJECT_TYPE":"PAYLOAD","GP_ID":"230952982","APOAPSIS":"542.515","MEAN_MOTION_DDOT":"0.0000000000000","OBJECT_ID":"2021-125N","TLE_LINE1":"1 50168U 21125N   23120.63406013  .00000519  00000-0  50736-4 0  9992","CLASSIFICATION_TYPE":"U","LAUNCH_DATE":"2021-12-18","NORAD_CAT_ID":"50168","CENTER_NAME":"EARTH","TIME_SYSTEM":"UTC","FILE":"3897416","RA_OF_ASC_NODE":"256.0825","MEAN_MOTION":"15.08851749","TLE_LINE2":"2 50168  53.2173 256.0825 0004056   6.0124 354.0916 15.08851749 75894","REV_AT_EPOCH":"7589","DECAY_DATE":null,"MEAN_MOTION_DOT":"0.00000519","MEAN_ELEMENT_THEORY":"SGP4","REF_FRAME":"TEME"},{"ECCENTRICITY":"0.00007050","ELEMENT_SET_NO":"999","EPOCH":"2023-04-30T14:30:40.406976","SEMIMAJOR_AXIS":"6917.863","BSTAR":"0.00015703000000","COUNTRY_CODE":"US","EPHEMERIS_TYPE":"0","SITE":"AFWTR","PERIAPSIS":"539.240","RCS_SIZE":"LARGE","PERIOD":"95.437","INCLINATION":"53.2156","MEAN_ANOMALY":"257.8617","ARG_OF_PERICENTER":"102.2454","OBJECT_NAME":"STARLINK-3301","REF_FRAME":"TEME","RA_OF_ASC_NODE":"256.1998","FILE":"3897442","TLE_LINE2":"2 50169  53.2156 256.1998 0000705 102.2454 257.8617 15.08845847 78983","REV_AT_EPOCH":"7898","MEAN_MOTION":"15.08845847","MEAN_MOTION_DOT":"0.00002213","DECAY_DATE":null,"MEAN_ELEMENT_THEORY":"SGP4","CENTER_NAME":"EARTH","TIME_SYSTEM":"UTC","GP_ID":"230974910","OBJECT_TYPE":"PAYLOAD","OBJECT_ID":"2021-125P","MEAN_MOTION_DDOT":"0.0000000000000","APOAPSIS":"540.215","CLASSIFICATION_TYPE":"U","TLE_LINE1":"1 50169U 21125P   23120.60463434  .00002213  00000-0  15703-3 0  9997","LAUNCH_DATE":"2021-12-18","NORAD_CAT_ID":"50169"},{"PERIAPSIS":"539.058","SITE":"AFWTR","OBJECT_NAME":"STARLINK-3245","ARG_OF_PERICENTER":"70.0676","MEAN_ANOMALY":"290.0423","INCLINATION":"53.2167","PERIOD":"95.437","RCS_SIZE":"LARGE","BSTAR":"0.00009624900000","SEMIMAJOR_AXIS":"6917.877","EPOCH":"2023-04-30T16:37:51.559968","ELEMENT_SET_NO":"999","ECCENTRICITY":"0.00009890","EPHEMERIS_TYPE":"0","COUNTRY_CODE":"US","TIME_SYSTEM":"UTC","CENTER_NAME":"EARTH","NORAD_CAT_ID":"50170","CLASSIFICATION_TYPE":"U","TLE_LINE1":"1 50170U 21125Q   23120.69295787  .00001244  00000-0  96249-4 0  9990","LAUNCH_DATE":"2021-12-18","MEAN_MOTION_DDOT":"0.0000000000000","APOAPSIS":"540.427","OBJECT_ID":"2021-125Q","OBJECT_TYPE":"PAYLOAD","GP_ID":"230983962","REF_FRAME":"TEME","MEAN_ELEMENT_THEORY":"SGP4","DECAY_DATE":null,"MEAN_MOTION_DOT":"0.00001244","MEAN_MOTION":"15.08840998","REV_AT_EPOCH":"7850","TLE_LINE2":"2 50170  53.2167 255.8011 0000989  70.0676 290.0423 15.08840998 78505","FILE":"3897616","RA_OF_ASC_NODE":"255.8011"},{"PERIAPSIS":"538.974","SITE":"AFWTR","ARG_OF_PERICENTER":"101.4528","OBJECT_NAME":"STARLINK-3286","PERIOD":"95.438","INCLINATION":"53.2153","MEAN_ANOMALY":"258.6589","RCS_SIZE":"LARGE","BSTAR":"0.00006996000000","SEMIMAJOR_AXIS":"6917.878","ECCENTRICITY":"0.00011110","EPOCH":"2023-04-30T15:23:40.066080","ELEMENT_SET_NO":"999","EPHEMERIS_TYPE":"0","COUNTRY_CODE":"US","CENTER_NAME":"EARTH","TIME_SYSTEM":"UTC","NORAD_CAT_ID":"50171","LAUNCH_DATE":"2021-12-18","TLE_LINE1":"1 50171U 21125R   23120.64143595  .00000826  00000-0  69960-4 0  9990","CLASSIFICATION_TYPE":"U","OBJECT_ID":"2021-125R","MEAN_MOTION_DDOT":"0.0000000000000","APOAPSIS":"540.511","GP_ID":"230952664","OBJECT_TYPE":"PAYLOAD","REF_FRAME":"TEME","MEAN_ELEMENT_THEORY":"SGP4","MEAN_MOTION_DOT":"0.00000826","DECAY_DATE":null,"REV_AT_EPOCH":"7849","TLE_LINE2":"2 50171  53.2153 256.0315 0001111 101.4528 258.6589 15.08840842 78493","MEAN_MOTION":"15.08840842","RA_OF_ASC_NODE":"256.0315","FILE":"3897416"},{"CLASSIFICATION_TYPE":"U","TLE_LINE1":"1 50172U 21125S   23120.55311927  .00000610  00000-0  56411-4 0  9995","LAUNCH_DATE":"2021-12-18","NORAD_CAT_ID":"50172","GP_ID":"230975161","OBJECT_TYPE":"PAYLOAD","OBJECT_ID":"2021-125S","APOAPSIS":"540.664","MEAN_MOTION_DDOT":"0.0000000000000","TIME_SYSTEM":"UTC","CENTER_NAME":"EARTH","MEAN_MOTION_DOT":"0.00000610","DECAY_DATE":null,"MEAN_ELEMENT_THEORY":"SGP4","RA_OF_ASC_NODE":"256.4293","FILE":"3897442","TLE_LINE2":"2 50172  53.2170 256.4293 0001333  96.4463 263.6681 15.08841209 79004","REV_AT_EPOCH":"7900","MEAN_MOTION":"15.08841209","REF_FRAME":"TEME","ARG_OF_PERICENTER":"96.4463","OBJECT_NAME":"STARLINK-3287","RCS_SIZE":"LARGE","PERIOD":"95.437","INCLINATION":"53.2170","MEAN_ANOMALY":"263.6681","PERIAPSIS":"538.820","SITE":"AFWTR","COUNTRY_CODE":"US","EPHEMERIS_TYPE":"0","BSTAR":"0.00005641100000","ECCENTRICITY":"0.00013330","EPOCH":"2023-04-30T13:16:29.504928","ELEMENT_SET_NO":"999","SEMIMAJOR_AXIS":"6917.877"},{"REF_FRAME":"TEME","MEAN_MOTION_DOT":"0.00000224","DECAY_DATE":null,"MEAN_ELEMENT_THEORY":"SGP4","RA_OF_ASC_NODE":"246.3413","FILE":"3897442","REV_AT_EPOCH":"7912","TLE_LINE2":"2 50173  53.2149 246.3413 0001601 112.4577 247.6585 15.08838446 79123","MEAN_MOTION":"15.08838446","CENTER_NAME":"EARTH","TIME_SYSTEM":"UTC","CLASSIFICATION_TYPE":"U","TLE_LINE1":"1 50173U 21125T   23120.58716656  .00000224  00000-0  32186-4 0  9991","LAUNCH_DATE":"2021-12-18","NORAD_CAT_ID":"50173","GP_ID":"230975411","OBJECT_TYPE":"PAYLOAD","OBJECT_ID":"2021-125T","APOAPSIS":"540.858","MEAN_MOTION_DDOT":"0.0000000000000","BSTAR":"0.00003218600000","ECCENTRICITY":"0.00016010","EPOCH":"2023-04-30T14:05:31.190784","ELEMENT_SET_NO":"999","SEMIMAJOR_AXIS":"6917.885","COUNTRY_CODE":"US","EPHEMERIS_TYPE":"0","PERIAPSIS":"538.643","SITE":"AFWTR","ARG_OF_PERICENTER":"112.4577","OBJECT_NAME":"STARLINK-3289","RCS_SIZE":"LARGE","INCLINATION":"53.2149","PERIOD":"95.438","MEAN_ANOMALY":"247.6585"},{"RCS_SIZE":"LARGE","MEAN_ANOMALY":"281.8877","INCLINATION":"53.2174","PERIOD":"95.437","OBJECT_NAME":"STARLINK-3292","ARG_OF_PERICENTER":"78.2234","SITE":"AFWTR","PERIAPSIS":"538.999","COUNTRY_CODE":"US","EPHEMERIS_TYPE":"0","ELEMENT_SET_NO":"999","EPOCH":"2023-04-30T14:35:58.554240","ECCENTRICITY":"0.00010660","SEMIMAJOR_AXIS":"6917.872","BSTAR":"0.00009563900000","OBJECT_TYPE":"PAYLOAD","GP_ID":"230975662","MEAN_MOTION_DDOT":"0.0000000000000","APOAPSIS":"540.474","OBJECT_ID":"2021-125U","LAUNCH_DATE":"2021-12-18","TLE_LINE1":"1 50174U 21125U   23120.60831660  .00001235  00000-0  95639-4 0  9993","CLASSIFICATION_TYPE":"U","NORAD_CAT_ID":"50174","CENTER_NAME":"EARTH","TIME_SYSTEM":"UTC","FILE":"3897442","RA_OF_ASC_NODE":"256.1815","MEAN_MOTION":"15.08842849","TLE_LINE2":"2 50174  53.2174 256.1815 0001066  78.2234 281.8877 15.08842849 79026","REV_AT_EPOCH":"7902","DECAY_DATE":null,"MEAN_MOTION_DOT":"0.00001235","MEAN_ELEMENT_THEORY":"SGP4","REF_FRAME":"TEME"},{"ARG_OF_PERICENTER":"81.2440","OBJECT_NAME":"STARLINK-3291","INCLINATION":"53.2158","PERIOD":"95.437","MEAN_ANOMALY":"278.8647","RCS_SIZE":"LARGE","PERIAPSIS":"539.162","SITE":"AFWTR","EPHEMERIS_TYPE":"0","COUNTRY_CODE":"US","BSTAR":"0.00008776200000","SEMIMAJOR_AXIS":"6917.875","ECCENTRICITY":"0.00008350","ELEMENT_SET_NO":"999","EPOCH":"2023-04-30T15:07:46.247232","NORAD_CAT_ID":"50175","LAUNCH_DATE":"2021-12-18","TLE_LINE1":"1 50175U 21125V   23120.63039638  .00001109  00000-0  87762-4 0  9990","CLASSIFICATION_TYPE":"U","OBJECT_ID":"2021-125V","APOAPSIS":"540.317","MEAN_MOTION_DDOT":"0.0000000000000","GP_ID":"230952659","OBJECT_TYPE":"PAYLOAD","TIME_SYSTEM":"UTC","CENTER_NAME":"EARTH","MEAN_ELEMENT_THEORY":"SGP4","MEAN_MOTION_DOT":"0.00001109","DECAY_DATE":null,"REV_AT_EPOCH":"7849","TLE_LINE2":"2 50175  53.2158 256.0803 0000835  81.2440 278.8647 15.08841922 78493","MEAN_MOTION":"15.08841922","RA_OF_ASC_NODE":"256.0803","FILE":"3897416","REF_FRAME":"TEME"},{"COUNTRY_CODE":"US","EPHEMERIS_TYPE":"0","ELEMENT_SET_NO":"999","EPOCH":"2023-04-30T14:41:16.423296","ECCENTRICITY":"0.00009820","SEMIMAJOR_AXIS":"6917.874","BSTAR":"0.00009642700000","RCS_SIZE":"LARGE","MEAN_ANOMALY":"251.5867","INCLINATION":"53.2162","PERIOD":"95.437","OBJECT_NAME":"STARLINK-3293","ARG_OF_PERICENTER":"108.5232","SITE":"AFWTR","PERIAPSIS":"539.060","FILE":"3897416","RA_OF_ASC_NODE":"256.1657","MEAN_MOTION":"15.08842119","REV_AT_EPOCH":"7589","TLE_LINE2":"2 50176  53.2162 256.1657 0000982 108.5232 251.5867 15.08842119 75894","DECAY_DATE":null,"MEAN_MOTION_DOT":"0.00001247","MEAN_ELEMENT_THEORY":"SGP4","REF_FRAME":"TEME","OBJECT_TYPE":"PAYLOAD","GP_ID":"230952986","MEAN_MOTION_DDOT":"0.0000000000000","APOAPSIS":"540.418","OBJECT_ID":"2021-125W","LAUNCH_DATE":"2021-12-18","TLE_LINE1":"1 50176U 21125W   23120.61199564  .00001247  00000-0  96427-4 0  9995","CLASSIFICATION_TYPE":"U","NORAD_CAT_ID":"50176","TIME_SYSTEM":"UTC","CENTER_NAME":"EARTH"},{"MEAN_MOTION":"15.08843559","TLE_LINE2":"2 50177  53.2135 256.1113 0000639 107.2024 252.9038 15.08843559 78499","REV_AT_EPOCH":"7849","FILE":"3897416","RA_OF_ASC_NODE":"256.1113","MEAN_ELEMENT_THEORY":"SGP4","DECAY_DATE":null,"MEAN_MOTION_DOT":"0.00004531","REF_FRAME":"TEME","APOAPSIS":"540.177","MEAN_MOTION_DDOT":"0.0000000000000","OBJECT_ID":"2021-125X","OBJECT_TYPE":"PAYLOAD","GP_ID":"230952656","NORAD_CAT_ID":"50177","LAUNCH_DATE":"2021-12-18","TLE_LINE1":"1 50177U 21125X   23120.62303394  .00004531  00000-0  30255-3 0  9990","CLASSIFICATION_TYPE":"U","CENTER_NAME":"EARTH","TIME_SYSTEM":"UTC","EPHEMERIS_TYPE":"0","COUNTRY_CODE":"US","SEMIMAJOR_AXIS":"6917.870","EPOCH":"2023-04-30T14:57:10.132416","ELEMENT_SET_NO":"999","ECCENTRICITY":"0.00006390","BSTAR":"0.00030255000000","MEAN_ANOMALY":"252.9038","INCLINATION":"53.2135","PERIOD":"95.437","RCS_SIZE":"LARGE","OBJECT_NAME":"STARLINK-3282","ARG_OF_PERICENTER":"107.2024","SITE":"AFWTR","PERIAPSIS":"539.292"}];
